SL-16 R/B               
1 25400U 98043G   26025.58094950  .00000166  00000+0  88399-4 0  9993
2 25400  98.8186 338.6583 0010554 134.9346 225.2691 14.26038365432840
SL-16 R/B               
1 25407U 98045B   26025.62820284  .00000126  00000+0  87543-4 0  9990
2 25407  71.0108 272.1322 0005114  91.8544 268.3165 14.16186767421003
ISS (ZARYA)             
1 25544U 98067A   26025.52956391  .00014870  00000+0  28510-3 0  9993
2 25544  51.6317 285.7043 0010958  29.6295 330.5312 15.48176704549648
CZ-4B R/B               
1 25732U 99025C   26025.58011844  .00000111  00000+0  74408-4 0  9999
2 25732  98.6708  70.8665 0038161 108.5480  54.0627 14.18255986382057
OKEAN-O                 
1 25860U 99039A   26025.59391797  .00001372  00000+0  18718-3 0  9996
2 25860  97.9533  85.9034 0001885  98.4850 261.6576 14.80257328428012
SL-16 R/B               
1 25861U 99039B   26025.61458696  .00001094  00000+0  14567-3 0  9991
2 25861  98.0059  84.7552 0015674  41.4253 318.8145 14.81664601430484
DELTA 2 R/B             
1 25876U 99041E   26025.61140522  .00004058  00000+0  68959-3 0  9993
2 25876  51.7626 113.2985 0502891 221.1427 135.0553 14.11630724356948
HELIOS 1B               
1 25977U 99064A   26025.66546210  .00003397  00000+0  38102-3 0  9991
2 25977  98.1733 286.6365 0001312 132.0925 228.0402 14.87503086678863
TERRA                   
1 25994U 99068A   26025.65720558  .00000822  00000+0  17684-3 0  9994
2 25994  97.9683  80.7163 0001609 352.2660 177.6638 14.60963077388794
SL-16 R/B               
1 26070U 00006B   26025.49109997  .00000272  00000+0  16268-3 0  9990
2 26070  71.0007 188.6655 0018633 249.6679 110.2442 14.15814327342442
TITAN 4B R/B            
1 26474U 00047B   26025.62335651  .00006475  00000+0  40826-3 0  9994
2 26474  67.9892 161.5746 0036838  89.2250 271.3120 15.09175393386411
ENVISAT                 
1 27386U 02009A   26025.51269179  .00000268  00000+0  10060-3 0  9997
2 27386  98.3659 340.1579 0001228  91.7854  22.5153 14.39019036252962
